[{"OBJECT_NAME":"STARLINK-5427","OBJECT_ID":"2022-177AK","EPOCH":"2026-03-09T22:00:01.999584","MEAN_MOTION":15.11827322,"ECCENTRICITY":0.00012614,"INCLINATION":42.9996,"RA_OF_ASC_NODE":119,"ARG_OF_PERICENTER":273.4181,"MEAN_ANOMALY":332.9987,"EPHEMERIS_TYPE":0,"CLASSIFICATION_TYPE":"U","NORAD_CAT_ID":54853,"ELEMENT_SET_NO":999,"REV_AT_EPOCH":573,"BSTAR":0.0013520454,"MEAN_MOTION_DOT":0.00023365,"MEAN_MOTION_DDOT":0},{"OBJECT_NAME":"COSMOS 2251 DEB","OBJECT_ID":"1993-036AL","EPOCH":"2026-03-09T15:08:47.217120","MEAN_MOTION":15.1034549,"ECCENTRICITY":0.0030621,"INCLINATION":74.0303,"RA_OF_ASC_NODE":257.926,"ARG_OF_PERICENTER":317.2462,"MEAN_ANOMALY":110.0671,"EPHEMERIS_TYPE":0,"CLASSIFICATION_TYPE":"U","NORAD_CAT_ID":33795,"ELEMENT_SET_NO":999,"REV_AT_EPOCH":91331,"BSTAR":0.001367,"MEAN_MOTION_DOT":0.00022707,"MEAN_MOTION_DDOT":0}]
